[{"OBJECT_NAME":"FALCONSAT-10","OBJECT_ID":"2023-174AM","EPOCH":"2026-03-09T16:51:34.085376","MEAN_MOTION":15.26670596,"ECCENTRICITY":0.00089318,"INCLINATION":97.3865,"RA_OF_ASC_NODE":145.7938,"ARG_OF_PERICENTER":169.5942,"MEAN_ANOMALY":190.5483,"EPHEMERIS_TYPE":0,"CLASSIFICATION_TYPE":"U","NORAD_CAT_ID":58291,"ELEMENT_SET_NO":999,"REV_AT_EPOCH":12958,"BSTAR":0.00025968794,"MEAN_MOTION_DOT":6.748e-5,"MEAN_MOTION_DDOT":0},{"OBJECT_NAME":"STARLINK-31009","OBJECT_ID":"2023-191Y","EPOCH":"2026-03-09T12:09:56.109024","MEAN_MOTION":15.27125173,"ECCENTRICITY":0.00020466,"INCLINATION":42.9983,"RA_OF_ASC_NODE":104.4335,"ARG_OF_PERICENTER":225.1892,"MEAN_ANOMALY":134.8793,"EPHEMERIS_TYPE":0,"CLASSIFICATION_TYPE":"U","NORAD_CAT_ID":58530,"ELEMENT_SET_NO":999,"REV_AT_EPOCH":12546,"BSTAR":0.002937283,"MEAN_MOTION_DOT":0.00080329,"MEAN_MOTION_DDOT":0}]
